STARLINK-5583           
1 55768U 23028AD  24056.40138810 -.00000667  00000+0 -48127-4 0  9994
2 55768  69.9990 298.6344 0002756 270.5341  89.5502 14.98333900 55181
STARLINK-5584           
1 55769U 23028AE  24056.13017219  .00000112  00000+0  17140-4 0  9998
2 55769  69.9991 299.2938 0002740 269.8487  90.2358 14.98333187 55145
STARLINK-5557           
1 55770U 23028AF  24056.39303947  .00000382  00000+0  39792-4 0  9990
2 55770  69.9993 298.6049 0002636 270.3851  89.7006 14.98330679 55181
STARLINK-5591           
1 55771U 23028AG  24056.38469050 -.00000102  00000+0 -77950-6 0  9990
2 55771  69.9999 298.5771 0002496 269.6954  90.3919 14.98332705 55192
STARLINK-5835           
1 55772U 23028AH  24055.63780917 -.00000278  00000+0 -15541-4 0  9996
2 55772  69.9997 300.3827 0002917 268.4269  91.6555 14.98332550 55085
STARLINK-5833           
1 55773U 23028AJ  24056.11781391  .00000137  00000+0  19264-4 0  9996
2 55773  69.9998 299.2501 0002580 268.1710  91.9153 14.98335700 55151
STARLINK-5812           
1 55774U 23028AK  24056.38051175 -.00000465  00000+0 -31200-4 0  9996
2 55774  69.9987 298.5607 0002999 271.0965  88.9851 14.98338554 55193
STARLINK-5809           
1 55775U 23028AL  24056.37633679 -.00002173  00000+0 -17434-3 0  9991
2 55775  69.9999 298.5475 0002707 261.5927  98.4925 14.98345398 55191
STARLINK-5810           
1 55776U 23028AM  24056.08843066  .00000459  00000+0  46238-4 0  9991
2 55776  69.9996 299.1431 0002852 269.6405  90.4427 14.98333194 55155
STARLINK-5814           
1 55777U 23028AN  24055.76715572 -.00000207  00000+0 -95804-5 0  9993
2 55777  69.9996 300.0315 0002882 273.7189  86.3640 14.98332900 55107
STARLINK-5816           
1 55778U 23028AP  24055.42918290 -.00000672  00000+0 -48511-4 0  9997
2 55778  69.9997 300.8576 0002861 272.7032  87.3800 14.98332171 55052
STARLINK-5817           
1 55779U 23028AQ  24055.86705512  .00000062  00000+0  12965-4 0  9992
2 55779  69.9986 279.6974 0002750 269.6359  90.4485 14.98334395 55616
STARLINK-5819           
1 55780U 23028AR  24055.42500961 -.00000141  00000+0 -40147-5 0  9991
2 55780  69.9996 300.8424 0002704 268.7310  91.3539 14.98330865 55058
STARLINK-5820           
1 55781U 23028AS  24056.41407451 -.00000207  00000+0 -95549-5 0  9991
2 55781  69.9985 298.7057 0002785 268.2396  91.8444 14.98336189 55192
STARLINK-5826           
1 55782U 23028AT  24055.86307308 -.00000036  00000+0  47481-5 0  9991
2 55782  69.9984 280.0902 0002807 271.7331  88.3507 14.98335727 55602
STARLINK-5825           
1 55783U 23028AU  24056.33022466 -.00002109  00000+0 -16899-3 0  9995
2 55783  69.9983 278.9103 0002835 260.8970  99.1868 14.98343908 55677
STARLINK-5797           
1 55784U 23028AV  24056.44721885 -.00000904  00000+0 -68010-4 0  9993
2 55784  69.9972 278.5156 0003054 273.7227  86.3582 14.98329931 55695
STARLINK-5818           
1 55785U 23028AW  24056.05901459 -.00000140  00000+0 -39602-5 0  9996
2 55785  69.9982 279.5690 0002908 273.3557  86.7269 14.98333123 55627
STARLINK-5823           
1 55786U 23028AX  24056.04649205  .00000085  00000+0  14929-4 0  9994
2 55786  69.9981 279.5249 0002872 270.9304  89.1525 14.98333987 55620
STARLINK-5811           
1 55787U 23028AY  24056.05483908 -.00000103  00000+0 -84684-6 0  9992
2 55787  69.9973 279.5541 0003104 270.1701  89.9102 14.98333267 55629
STARLINK-5804           
1 55788U 23028AZ  24056.31770786 -.00001000  00000+0 -76051-4 0  9999
2 55788  69.9970 278.8664 0003043 270.3319  89.7491 14.98331322 55667
STARLINK-5815           
1 55789U 23028BA  24056.02561961  .00000323  00000+0  34878-4 0  9997
2 55789  69.9981 279.4508 0003077 271.9517  88.1289 14.98334611 55626
STARLINK-5813           
1 55790U 23028BB  24056.36376658 -.00001189  00000+0 -91846-4 0  9994
2 55790  69.9985 278.6251 0002827 284.0600  76.0244 14.98337782 55672
STARLINK-5807           
1 55791U 23028BC  24056.04231726 -.00000135  00000+0 -34918-5 0  9994
2 55791  69.9979 279.5105 0002844 272.2934  87.7899 14.98333961 55627
STARLINK-5856           
1 55914U 23037A   24056.31886996  .00002705  00000+0  23446-3 0  9991
2 55914  70.0021  18.9121 0002693 268.9164  91.1687 14.98324282 52477
STARLINK-5859           
1 55915U 23037B   24056.23541474 -.00000115  00000+0 -18677-5 0  9999
2 55915  70.0015  19.0188 0002848 267.4697  92.6136 14.98330411 52468
STARLINK-5796           
1 55916U 23037C   24056.18117257 -.00001012  00000+0 -76999-4 0  9999
2 55916  70.0009  19.2331 0003196 268.8887  91.1905 14.98337827 52452
STARLINK-5855           
1 55917U 23037D   24055.31739487  .00021655  00000+0  14917-2 0  9992
2 55917  70.0016  18.2479 0005373 273.9943  86.0606 15.05821687 52061
STARLINK-5867           
1 55918U 23037E   24055.90996237  .00000892  00000+0  82511-4 0  9993
2 55918  70.0018  19.8917 0002879 272.5756  87.5074 14.98331974 52075
STARLINK-5871           
1 55919U 23037F   24056.23124666 -.00001073  00000+0 -82206-4 0  9995
2 55919  70.0031  19.0051 0002261 262.1222  97.9681 14.98320280 52460
STARLINK-5862           
1 55920U 23037G   24056.23935414  .00001145  00000+0  10366-3 0  9993
2 55920  70.0017 359.1552 0002972 267.4034  92.6785 14.98343519 52959
STARLINK-5861           
1 55921U 23037H   24056.21871241  .00000315  00000+0  34194-4 0  9993
2 55921  70.0014  18.9606 0002806 266.2840  93.7998 14.98335261 52464
STARLINK-5863           
1 55922U 23037J   24055.88909407 -.00000141  00000+0 -40149-5 0  9999
2 55922  70.0020  19.8168 0002695 270.5068  89.5782 14.98331330 52075
STARLINK-5854           
1 55923U 23037K   24056.16030634 -.00000346  00000+0 -21204-4 0  9996
2 55923  70.0018  19.1571 0002668 266.9386  93.1467 14.98329368 52457
STARLINK-5849           
1 55924U 23037L   24056.23518956 -.00000042  00000+0  42246-5 0  9995
2 55924  70.0025 359.1369 0002522 268.5993  91.4877 14.98331676 52955
STARLINK-5922           
1 55925U 23037M   24056.21454516  .00001679  00000+0  14851-3 0  9990
2 55925  70.0025  18.9460 0002627 268.9604  91.1254 14.98323669 52462
STARLINK-5921           
1 55926U 23037N   24056.29359372  .00000326  00000+0  35067-4 0  9994
2 55926  70.0024 358.9442 0002605 269.3995  90.6865 14.98339924 52961
STARLINK-5919           
1 55927U 23037P   24056.21036651  .00001415  00000+0  12637-3 0  9996
2 55927  70.0026  18.9313 0002461 268.1234  91.9643 14.98330095 52460
STARLINK-5930           
1 55928U 23037Q   24056.20201852  .00000160  00000+0  21172-4 0  9994
2 55928  70.0022  18.9031 0002637 266.0476  94.0382 14.98332762 52461
STARLINK-5898           
1 55929U 23037R   24055.87239414  .00000696  00000+0  66079-4 0  9991
2 55929  70.0021  19.7587 0002656 269.0054  91.0801 14.98334360 52078
STARLINK-5896           
1 55930U 23037S   24056.19928174  .00000101  00000+0  15991-4 0  9995
2 55930  70.0023 359.0178 0002679 270.5240  89.5612 14.99142034 52952
STARLINK-5897           
1 55931U 23037T   24056.19784266 -.00000134  00000+0 -34534-5 0  9991
2 55931  70.0024  18.8890 0002771 271.7581  88.3260 14.98335290 52468
STARLINK-5848           
1 55932U 23037U   24056.22241185 -.00000094  00000+0 -10895-6 0  9994
2 55932  70.0011 338.8145 0002677 268.4127  91.6726 14.98337688 53454
STARLINK-5852           
1 55933U 23037V   24055.55506456 -.00003456  00000+0 -28188-3 0  9991
2 55933  70.0026   0.7814 0002707 272.8843  87.2006 14.98347015 52857
STARLINK-5927           
1 55934U 23037W   24056.19778636 -.00000325  00000+0 -19416-4 0  9991
2 55934  70.0019 359.0097 0002746 265.5657  94.5188 14.98334916 52957
STARLINK-5920           
1 55935U 23037X   24056.15173416  .00000200  00000+0  24519-4 0  9993
2 55935  70.0028 359.2504 0002596 273.2072  86.8790 14.98328367 52948
STARLINK-5882           
1 55936U 23037Y   24056.15982894 -.00000044  00000+0  40882-5 0  9991
2 55936  70.0017 338.9968 0002518 260.0778 100.0097 14.98333239 53445
STARLINK-5913           
1 55937U 23037Z   24056.21428066  .00011104  00000+0  93662-3 0  9995
2 55937  70.0050 359.0692 0003474 250.4277 109.6507 14.98343303 52959
STARLINK-5909           
1 55938U 23037AA  24056.54394353 -.00000823  00000+0 -61152-4 0  9991
2 55938  70.0022 358.2132 0002605 266.8257  93.2604 14.98333760 53002
STARLINK-5918           
1 55939U 23037AB  24056.20179266  .00000129  00000+0  18587-4 0  9990
2 55939  70.0022 359.0239 0002742 274.0099  86.0747 14.98336959 52951
STARLINK-5864           
1 55940U 23037AC  24056.20596954  .00000880  00000+0  81488-4 0  9993
2 55940  70.0031 359.0406 0002236 255.3888 104.7024 14.98331388 52952
STARLINK-5914           
1 55941U 23037AD  24056.23101401 -.00000103  00000+0 -83072-6 0  9999
2 55941  70.0025 359.1257 0002510 266.4133  93.6739 14.98334505 52955
STARLINK-5917           
1 55942U 23037AE  24056.18092605  .00000945  00000+0  86963-4 0  9991
2 55942  70.0023 358.9489 0002691 267.8177  92.2674 14.98327123 52952
STARLINK-5932           
1 55943U 23037AF  24056.18927232 -.00000007  00000+0  72200-5 0  9995
2 55943  70.0023 358.9798 0002501 269.8908  90.1964 14.98334952 52957
STARLINK-5926           
1 55944U 23037AG  24056.18509976  .00002415  00000+0  21017-3 0  9999
2 55944  70.0022 358.9630 0002590 269.6668  90.4194 14.98325062 52951
STARLINK-5925           
1 55945U 23037AH  24056.19762134 -.00000036  00000+0  48124-5 0  9996
2 55945  70.0022 359.0087 0002685 270.5329  89.5523 14.98333562 52959
STARLINK-5857           
1 55946U 23037AJ  24055.59261033 -.00001708  00000+0 -13535-3 0  9996
2 55946  70.0023   0.5081 0002262 285.0627  75.0282 14.98336915 52863
STARLINK-5851           
1 55947U 23037AK  24056.24368180  .00002933  00000+0  25351-3 0  9999
2 55947  70.0035 358.7663 0002206 263.2038  96.8870 14.98325516 52963
STARLINK-5900           
1 55948U 23037AL  24056.13898411  .00000117  00000+0  17613-4 0  9998
2 55948  70.0018 339.3278 0002584 266.8462  93.2401 14.98337483 53431
